start=new Date('2022-11-02T00:00:00.000Z').valueOf();
sats=[{"EPOCH":"2022-11-01T14:53:42.690336","REF_FRAME":"TEME","SEMIMAJOR_AXIS":"6925.370","GP_ID":"216684476","COUNTRY_CODE":"US","TLE_LINE1":"1 47909U 21021BB  22305.62063299  .00000986  00000-0  85081-4 0  9993","MEAN_MOTION_DDOT":"0.0000000000000","REV_AT_EPOCH":"9185","TLE_LINE2":"2 47909  53.0556   6.6852 0001678  62.0451 298.0708 15.06392932 91859","MEAN_ELEMENT_THEORY":"SGP4","MEAN_MOTION_DOT":"0.00000986","ECCENTRICITY":"0.00016780","BSTAR":"0.00008508100000","OBJECT_ID":"2021-021BB","DECAY_DATE":null,"PERIAPSIS":"546.073","ARG_OF_PERICENTER":"62.0451","OBJECT_TYPE":"PAYLOAD","INCLINATION":"53.0556","LAUNCH_DATE":"2021-03-14","RA_OF_ASC_NODE":"6.6852","MEAN_MOTION":"15.06392932","SITE":"AFETR","MEAN_ANOMALY":"298.0708","TIME_SYSTEM":"UTC","ELEMENT_SET_NO":"999","EPHEMERIS_TYPE":"0","CLASSIFICATION_TYPE":"U","RCS_SIZE":"LARGE","OBJECT_NAME":"STARLINK-2369","PERIOD":"95.593","NORAD_CAT_ID":"47909","CENTER_NAME":"EARTH","FILE":"3640431","APOAPSIS":"548.397"},{"OBJECT_ID":"2021-021BC","DECAY_DATE":null,"BSTAR":"0.00000820820000","MEAN_MOTION_DOT":"-0.00000159","ECCENTRICITY":"0.00015960","MEAN_ELEMENT_THEORY":"SGP4","TLE_LINE2":"2 47910  53.0548   7.4235 0001596  57.0226 303.0916 15.06394409 91689","REV_AT_EPOCH":"9168","COUNTRY_CODE":"US","MEAN_MOTION_DDOT":"0.0000000000000","TLE_LINE1":"1 47910U 21021BC  22305.45750235 -.00000159  00000-0  82082-5 0  9991","REF_FRAME":"TEME","EPOCH":"2022-11-01T10:58:48.203040","SEMIMAJOR_AXIS":"6925.366","GP_ID":"216658986","FILE":"3640409","APOAPSIS":"548.336","NORAD_CAT_ID":"47910","PERIOD":"95.592","CENTER_NAME":"EARTH","OBJECT_NAME":"STARLINK-2370","RCS_SIZE":"LARGE","ELEMENT_SET_NO":"999","TIME_SYSTEM":"UTC","CLASSIFICATION_TYPE":"U","EPHEMERIS_TYPE":"0","MEAN_ANOMALY":"303.0916","MEAN_MOTION":"15.06394409","RA_OF_ASC_NODE":"7.4235","SITE":"AFETR","OBJECT_TYPE":"PAYLOAD","INCLINATION":"53.0548","LAUNCH_DATE":"2021-03-14","ARG_OF_PERICENTER":"57.0226","PERIAPSIS":"546.125"},{"OBJECT_ID":"2021-021BD","DECAY_DATE":null,"BSTAR":"0.00040258000000","MEAN_MOTION_DOT":"0.00005719","ECCENTRICITY":"0.00014110","MEAN_ELEMENT_THEORY":"SGP4","TLE_LINE2":"2 47911  53.0559  22.5871 0001411  83.1279 276.9871 15.06395455 91309","REV_AT_EPOCH":"9130","COUNTRY_CODE":"US","TLE_LINE1":"1 47911U 21021BD  22305.47368993  .00005719  00000-0  40258-3 0  9993","MEAN_MOTION_DDOT":"0.0000000000000","REF_FRAME":"TEME","EPOCH":"2022-11-01T11:22:06.809952","GP_ID":"216659230","SEMIMAJOR_AXIS":"6925.362","FILE":"3640409","APOAPSIS":"548.205","CENTER_NAME":"EARTH","PERIOD":"95.592","NORAD_CAT_ID":"47911","OBJECT_NAME":"STARLINK-2371","RCS_SIZE":"LARGE","TIME_SYSTEM":"UTC","ELEMENT_SET_NO":"999","CLASSIFICATION_TYPE":"U","EPHEMERIS_TYPE":"0","MEAN_ANOMALY":"276.9871","MEAN_MOTION":"15.06395455","RA_OF_ASC_NODE":"22.5871","SITE":"AFETR","OBJECT_TYPE":"PAYLOAD","INCLINATION":"53.0559","LAUNCH_DATE":"2021-03-14","ARG_OF_PERICENTER":"83.1279","PERIAPSIS":"546.250"},{"FILE":"3640409","APOAPSIS":"548.401","CENTER_NAME":"EARTH","PERIOD":"95.593","NORAD_CAT_ID":"47912","OBJECT_NAME":"STARLINK-2372","RCS_SIZE":"LARGE","TIME_SYSTEM":"UTC","ELEMENT_SET_NO":"999","CLASSIFICATION_TYPE":"U","EPHEMERIS_TYPE":"0","MEAN_ANOMALY":"299.1500","MEAN_MOTION":"15.06392852","RA_OF_ASC_NODE":"7.1427","SITE":"AFETR","OBJECT_TYPE":"PAYLOAD","INCLINATION":"53.0563","LAUNCH_DATE":"2021-03-14","ARG_OF_PERICENTER":"60.9657","PERIAPSIS":"546.070","OBJECT_ID":"2021-021BE","DECAY_DATE":null,"BSTAR":"0.00011044000000","MEAN_MOTION_DOT":"0.00001363","ECCENTRICITY":"0.00016830","MEAN_ELEMENT_THEORY":"SGP4","TLE_LINE2":"2 47912  53.0563   7.1427 0001683  60.9657 299.1500 15.06392852 91523","REV_AT_EPOCH":"9152","COUNTRY_CODE":"US","TLE_LINE1":"1 47912U 21021BE  22305.51647796  .00001363  00000-0  11044-3 0  9992","MEAN_MOTION_DDOT":"0.0000000000000","REF_FRAME":"TEME","EPOCH":"2022-11-01T12:23:43.695744","SEMIMAJOR_AXIS":"6925.370","GP_ID":"216658485"},{"FILE":"3640409","APOAPSIS":"548.339","PERIOD":"95.593","CENTER_NAME":"EARTH","NORAD_CAT_ID":"47913","OBJECT_NAME":"STARLINK-2374","RCS_SIZE":"LARGE","TIME_SYSTEM":"UTC","ELEMENT_SET_NO":"999","CLASSIFICATION_TYPE":"U","EPHEMERIS_TYPE":"0","MEAN_ANOMALY":"297.8424","MEAN_MOTION":"15.06389245","RA_OF_ASC_NODE":"18.1879","SITE":"AFETR","OBJECT_TYPE":"PAYLOAD","LAUNCH_DATE":"2021-03-14","INCLINATION":"53.0565","ARG_OF_PERICENTER":"62.2725","PERIAPSIS":"546.154","OBJECT_ID":"2021-021BF","DECAY_DATE":null,"BSTAR":"0.00005055400000","MEAN_MOTION_DOT":"0.00000471","ECCENTRICITY":"0.00015770","MEAN_ELEMENT_THEORY":"SGP4","TLE_LINE2":"2 47913  53.0565  18.1879 0001577  62.2725 297.8424 15.06389245 91524","REV_AT_EPOCH":"9152","COUNTRY_CODE":"US","TLE_LINE1":"1 47913U 21021BF  22305.39124267  .00000471  00000-0  50554-4 0  9991","MEAN_MOTION_DDOT":"0.0000000000000","REF_FRAME":"TEME","EPOCH":"2022-11-01T09:23:23.366688","GP_ID":"216658235","SEMIMAJOR_AXIS":"6925.382"},{"MEAN_MOTION_DOT":"0.00000597","ECCENTRICITY":"0.00015950","OBJECT_ID":"2021-021BG","DECAY_DATE":null,"BSTAR":"0.00005897400000","COUNTRY_CODE":"US","MEAN_MOTION_DDOT":"0.0000000000000","TLE_LINE1":"1 47914U 21021BG  22305.60864267  .00000597  00000-0  58974-4 0  9990","EPOCH":"2022-11-01T14:36:26.726688","REF_FRAME":"TEME","GP_ID":"216684725","SEMIMAJOR_AXIS":"6925.337","MEAN_ELEMENT_THEORY":"SGP4","REV_AT_EPOCH":"9155","TLE_LINE2":"2 47914  53.0558  16.7403 0001595  62.7916 297.3235 15.06403704 91556","RCS_SIZE":"LARGE","OBJECT_NAME":"STARLINK-2375","TIME_SYSTEM":"UTC","ELEMENT_SET_NO":"999","EPHEMERIS_TYPE":"0","CLASSIFICATION_TYPE":"U","FILE":"3640431","APOAPSIS":"548.307","NORAD_CAT_ID":"47914","PERIOD":"95.592","CENTER_NAME":"EARTH","OBJECT_TYPE":"PAYLOAD","LAUNCH_DATE":"2021-03-14","INCLINATION":"53.0558","PERIAPSIS":"546.098","ARG_OF_PERICENTER":"62.7916","MEAN_ANOMALY":"297.3235","RA_OF_ASC_NODE":"16.7403","MEAN_MOTION":"15.06403704","SITE":"AFETR"},{"ECCENTRICITY":"0.00013870","MEAN_MOTION_DOT":"-0.00000391","BSTAR":"-0.00000737460000","DECAY_DATE":null,"OBJECT_ID":"2021-021BH","GP_ID":"216684974","SEMIMAJOR_AXIS":"6925.381","EPOCH":"2022-11-01T14:34:28.339680","REF_FRAME":"TEME","TLE_LINE1":"1 47915U 21021BH  22305.60727245 -.00000391  00000-0 -73746-5 0  9994","MEAN_MOTION_DDOT":"0.0000000000000","COUNTRY_CODE":"US","REV_AT_EPOCH":"9163","TLE_LINE2":"2 47915  53.0568  11.7318 0001387  80.1406 279.9739 15.06389327 91633","MEAN_ELEMENT_THEORY":"SGP4","EPHEMERIS_TYPE":"0","CLASSIFICATION_TYPE":"U","ELEMENT_SET_NO":"999","TIME_SYSTEM":"UTC","RCS_SIZE":"LARGE","OBJECT_NAME":"STARLINK-2376","PERIOD":"95.593","NORAD_CAT_ID":"47915","CENTER_NAME":"EARTH","APOAPSIS":"548.207","FILE":"3640431","PERIAPSIS":"546.286","ARG_OF_PERICENTER":"80.1406","INCLINATION":"53.0568","LAUNCH_DATE":"2021-03-14","OBJECT_TYPE":"PAYLOAD","SITE":"AFETR","RA_OF_ASC_NODE":"11.7318","MEAN_MOTION":"15.06389327","MEAN_ANOMALY":"279.9739"},{"COUNTRY_CODE":"US","TLE_LINE1":"1 47916U 21021BJ  22305.51465440 -.00000419  00000-0 -92202-5 0  9990","MEAN_MOTION_DDOT":"0.0000000000000","EPOCH":"2022-11-01T12:21:06.140160","REF_FRAME":"TEME","GP_ID":"216657985","SEMIMAJOR_AXIS":"6925.347","MEAN_ELEMENT_THEORY":"SGP4","REV_AT_EPOCH":"9180","TLE_LINE2":"2 47916  53.0540 357.1665 0001612  60.0943 300.0206 15.06400408 91808","MEAN_MOTION_DOT":"-0.00000419","ECCENTRICITY":"0.00016120","OBJECT_ID":"2021-021BJ","DECAY_DATE":null,"BSTAR":"-0.00000922020000","OBJECT_TYPE":"PAYLOAD","LAUNCH_DATE":"2021-03-14","INCLINATION":"53.0540","PERIAPSIS":"546.096","ARG_OF_PERICENTER":"60.0943","MEAN_ANOMALY":"300.0206","RA_OF_ASC_NODE":"357.1665","MEAN_MOTION":"15.06400408","SITE":"AFETR","RCS_SIZE":"LARGE","OBJECT_NAME":"STARLINK-2378","ELEMENT_SET_NO":"999","TIME_SYSTEM":"UTC","EPHEMERIS_TYPE":"0","CLASSIFICATION_TYPE":"U","FILE":"3640409","APOAPSIS":"548.329","PERIOD":"95.592","CENTER_NAME":"EARTH","NORAD_CAT_ID":"47916"},{"CLASSIFICATION_TYPE":"U","EPHEMERIS_TYPE":"0","ELEMENT_SET_NO":"999","TIME_SYSTEM":"UTC","OBJECT_NAME":"STARLINK-2397","RCS_SIZE":"LARGE","NORAD_CAT_ID":"47917","PERIOD":"95.592","CENTER_NAME":"EARTH","APOAPSIS":"548.154","FILE":"3640431","ARG_OF_PERICENTER":"65.0923","PERIAPSIS":"546.240","LAUNCH_DATE":"2021-03-14","INCLINATION":"53.0549","OBJECT_TYPE":"PAYLOAD","SITE":"AFETR","MEAN_MOTION":"15.06405299","RA_OF_ASC_NODE":"6.5221","MEAN_ANOMALY":"295.0209","ECCENTRICITY":"0.00013820","MEAN_MOTION_DOT":"0.00007278","BSTAR":"0.00050690000000","DECAY_DATE":null,"OBJECT_ID":"2021-021BK","SEMIMAJOR_AXIS":"6925.332","GP_ID":"216684477","REF_FRAME":"TEME","EPOCH":"2022-11-01T15:41:28.880736","TLE_LINE1":"1 47917U 21021BK  22305.65380649  .00007278  00000-0  50690-3 0  9994","MEAN_MOTION_DDOT":"0.0000000000000","COUNTRY_CODE":"US","TLE_LINE2":"2 47917  53.0549   6.5221 0001382  65.0923 295.0209 15.06405299 91672","REV_AT_EPOCH":"9167","MEAN_ELEMENT_THEORY":"SGP4"},{"TLE_LINE1":"1 47918U 21021BL  22305.46211801  .00001464  00000-0  11714-3 0  9992","MEAN_MOTION_DDOT":"0.0000000000000","COUNTRY_CODE":"US","GP_ID":"216658987","SEMIMAJOR_AXIS":"6925.302","EPOCH":"2022-11-01T11:05:26.996064","REF_FRAME":"TEME","MEAN_ELEMENT_THEORY":"SGP4","REV_AT_EPOCH":"9167","TLE_LINE2":"2 47918  53.0556   7.4028 0001703  62.8739 297.2424 15.06415028 91677","ECCENTRICITY":"0.00017030","MEAN_MOTION_DOT":"0.00001464","DECAY_DATE":null,"OBJECT_ID":"2021-021BL","BSTAR":"0.00011714000000","INCLINATION":"53.0556","LAUNCH_DATE":"2021-03-14","OBJECT_TYPE":"PAYLOAD","PERIAPSIS":"545.988","ARG_OF_PERICENTER":"62.8739","MEAN_ANOMALY":"297.2424","SITE":"AFETR","RA_OF_ASC_NODE":"7.4028","MEAN_MOTION":"15.06415028","RCS_SIZE":"LARGE","OBJECT_NAME":"STARLINK-2398","EPHEMERIS_TYPE":"0","CLASSIFICATION_TYPE":"U","ELEMENT_SET_NO":"999","TIME_SYSTEM":"UTC","APOAPSIS":"548.347","FILE":"3640409","CENTER_NAME":"EARTH","PERIOD":"95.591","NORAD_CAT_ID":"47918"}];
